[
  {
    "name": "STARLINK-35118",
    "noradId": "66858",
    "line1": "1 66858U 25281L   26178.99168160  .00019487  00000+0  71541-3 0  9994",
    "line2": "2 66858  43.0036  80.6461 0002027 276.0831  83.9790 15.27597957 33058"
  },
  {
    "name": "STARLINK-35646",
    "noradId": "66859",
    "line1": "1 66859U 25281M   26178.46473399  .00027574  00000+0  10077-2 0  9992",
    "line2": "2 66859  43.0028  83.5679 0003139 259.0885 100.9613 15.27581643 32977"
  },
  {
    "name": "STARLINK-35987",
    "noradId": "66860",
    "line1": "1 66860U 25281N   26178.77496673  .00016759  00000+0  61714-3 0  9996",
    "line2": "2 66860  43.0029  81.5969 0001371 266.6279  93.4416 15.27581411 33024"
  },
  {
    "name": "STARLINK-35991",
    "noradId": "66861",
    "line1": "1 66861U 25281P   26178.76597246  .00015931  00000+0  58724-3 0  9992",
    "line2": "2 66861  43.0014  81.5306 0000788 266.6017  93.4744 15.27577182 33029"
  },
  {
    "name": "STARLINK-35974",
    "noradId": "66862",
    "line1": "1 66862U 25281Q   26178.72243136  .00016561  00000+0  60996-3 0  9999",
    "line2": "2 66862  43.0033  82.0631 0001125 255.0476 105.0251 15.27581690 33016"
  },
  {
    "name": "STARLINK-36134",
    "noradId": "66863",
    "line1": "1 66863U 25281R   26178.75569359  .00020574  00000+0  75476-3 0  9999",
    "line2": "2 66863  43.0005  81.4417 0004048 284.3573  75.6829 15.27588437 33021"
  },
  {
    "name": "STARLINK-36070",
    "noradId": "66864",
    "line1": "1 66864U 25281S   26178.74170057  .00021198  00000+0  77729-3 0  9998",
    "line2": "2 66864  42.9999  82.2095 0000822 243.8633 116.2134 15.27594515 33010"
  },
  {
    "name": "STARLINK-36117",
    "noradId": "66865",
    "line1": "1 66865U 25281T   26178.76339733  .00021980  00000+0  80544-3 0  9997",
    "line2": "2 66865  43.0016  81.5088 0000381 273.8926  86.1882 15.27598325 33024"
  },
  {
    "name": "STARLINK-36126",
    "noradId": "66866",
    "line1": "1 66866U 25281U   26178.42632882  .00033845  00000+0  12327-2 0  9998",
    "line2": "2 66866  43.0005  84.1437 0000518 170.8637 189.2224 15.27610305 32956"
  },
  {
    "name": "STARLINK-36101",
    "noradId": "66867",
    "line1": "1 66867U 25281V   26178.74940524  .00025448  00000+0  93198-3 0  9995",
    "line2": "2 66867  43.0009  82.2671 0001415 250.1780 109.8919 15.27548728 33003"
  },
  {
    "name": "STARLINK-36108",
    "noradId": "66868",
    "line1": "1 66868U 25281W   26178.02630247  .00024206  00000+0  88640-3 0  9992",
    "line2": "2 66868  42.9998  86.2995 0001268 272.2220  87.8487 15.27574419 32899"
  },
  {
    "name": "STARLINK-36092",
    "noradId": "66869",
    "line1": "1 66869U 25281X   26178.73915060  .00024762  00000+0  90695-3 0  9990",
    "line2": "2 66869  43.0016  82.1906 0000965 274.1763  85.8979 15.27557738 33009"
  },
  {
    "name": "STARLINK-36114",
    "noradId": "66870",
    "line1": "1 66870U 25281Y   26178.80065647  .00025255  00000+0  92406-3 0  9997",
    "line2": "2 66870  42.9971  81.7821 0001423 256.9784 103.0909 15.27581897 33011"
  },
  {
    "name": "STARLINK-36095",
    "noradId": "66871",
    "line1": "1 66871U 25281Z   26178.79681234  .00010171  00000+0  37866-3 0  9992",
    "line2": "2 66871  43.0031  81.7596 0001552 269.5576  90.5098 15.27576871 33006"
  },
  {
    "name": "STARLINK-36082",
    "noradId": "66872",
    "line1": "1 66872U 25281AA  26178.79295820  .00020907  00000+0  76704-3 0  9997",
    "line2": "2 66872  43.0017  81.7279 0001417 246.6777 113.3926 15.27582480 33016"
  },
  {
    "name": "STARLINK-36128",
    "noradId": "66873",
    "line1": "1 66873U 25281AB  26178.78267881  .00015254  00000+0  56267-3 0  9994",
    "line2": "2 66873  43.0024  81.6492 0001257 256.5387 103.5325 15.27580895 32965"
  },
  {
    "name": "STARLINK-36129",
    "noradId": "66874",
    "line1": "1 66874U 25281AC  26178.72371615  .00021690  00000+0  79467-3 0  9998",
    "line2": "2 66874  43.0013  82.0675 0000957 222.3541 137.7237 15.27610196 33006"
  },
  {
    "name": "STARLINK-36053",
    "noradId": "66875",
    "line1": "1 66875U 25281AD  26178.71343490  .00020451  00000+0  75054-3 0  9990",
    "line2": "2 66875  43.0007  81.9881 0000965 255.7619 104.3125 15.27584482 32959"
  },
  {
    "name": "STARLINK-35702",
    "noradId": "66876",
    "line1": "1 66876U 25281AE  26178.78524650  .00013128  00000+0  48576-3 0  9999",
    "line2": "2 66876  43.0018  81.6687 0001357 261.1671  98.9027 15.27579160 33012"
  },
  {
    "name": "STARLINK-35866",
    "noradId": "66878",
    "line1": "1 66878U 25283A   26178.86289933  .00013339  00000+0  46165-3 0  9990",
    "line2": "2 66878  53.1578 232.3226 0001016 103.9298 256.1815 15.30200752 32712"
  },
  {
    "name": "STARLINK-35749",
    "noradId": "66879",
    "line1": "1 66879U 25283B   26178.39406466  .00026021  00000+0  88754-3 0  9993",
    "line2": "2 66879  53.1567 234.3716 0000860  93.5102 266.5997 15.30201716 32640"
  },
  {
    "name": "STARLINK-35844",
    "noradId": "66880",
    "line1": "1 66880U 25283C   26178.85654602  .00011784  00000+0  40942-3 0  9990",
    "line2": "2 66880  53.1586 232.2807 0001297 100.1752 259.9395 15.30195763 32712"
  },
  {
    "name": "STARLINK-35860",
    "noradId": "66881",
    "line1": "1 66881U 25283D   26178.84493086  .00032262  00000+0  10952-2 0  9998",
    "line2": "2 66881  53.1564 232.2063 0000976  67.1631 292.9473 15.30242963 32713"
  },
  {
    "name": "STARLINK-35912",
    "noradId": "66882",
    "line1": "1 66882U 25283E   26178.87536218  .00021603  00000+0  64857-3 0  9998",
    "line2": "2 66882  53.1589 230.9858 0000882  73.4049 286.7050 15.34404528 32732"
  },
  {
    "name": "STARLINK-35947",
    "noradId": "66883",
    "line1": "1 66883U 25283F   26178.55810093  .00022853  00000+0  68565-3 0  9998",
    "line2": "2 66883  53.1583 232.5628 0001070  67.4003 292.7113 15.34390775 32705"
  },
  {
    "name": "STARLINK-36057",
    "noradId": "66884",
    "line1": "1 66884U 25283G   26178.85020280  .00020454  00000+0  61479-3 0  9995",
    "line2": "2 66884  53.1576 231.5333 0001117  73.4379 286.6747 15.34402725 32721"
  },
  {
    "name": "STARLINK-35954",
    "noradId": "66885",
    "line1": "1 66885U 25283H   26178.44676241  .00012883  00000+0  39186-3 0  9992",
    "line2": "2 66885  53.1576 233.2865 0001159 102.8941 257.2191 15.34392677 32663"
  },
  {
    "name": "STARLINK-35900",
    "noradId": "66886",
    "line1": "1 66886U 25283J   26178.43836991  .00025658  00000+0  76836-3 0  9999",
    "line2": "2 66886  53.1573 233.2321 0001404 104.6493 255.4665 15.34381436 32660"
  },
  {
    "name": "STARLINK-35925",
    "noradId": "66887",
    "line1": "1 66887U 25283K   26178.84810036  .00017546  00000+0  52961-3 0  9997",
    "line2": "2 66887  53.1561 231.5215 0000313 106.1813 253.9224 15.34375134 32721"
  },
  {
    "name": "STARLINK-35919",
    "noradId": "66888",
    "line1": "1 66888U 25283L   26178.86072698  .00015480  00000+0  46842-3 0  9990",
    "line2": "2 66888  53.1569 231.5982 0001078  93.3560 266.7566 15.34394946 32729"
  },
  {
    "name": "STARLINK-35852",
    "noradId": "66889",
    "line1": "1 66889U 25283M   26178.56651268  .00018793  00000+0  56582-3 0  9996",
    "line2": "2 66889  53.1580 232.6094 0001119  76.6457 283.4670 15.34406994 32688"
  },
  {
    "name": "STARLINK-35885",
    "noradId": "66890",
    "line1": "1 66890U 25283N   26178.83968575  .00016517  00000+0  49902-3 0  9990",
    "line2": "2 66890  53.1563 231.4677 0001111  75.4544 284.6582 15.34392658 32722"
  },
  {
    "name": "STARLINK-35855",
    "noradId": "66891",
    "line1": "1 66891U 25283P   26178.85860652  .00012790  00000+0  38902-3 0  9997",
    "line2": "2 66891  53.1581 231.5828 0000843  96.5582 263.5516 15.34399979 32725"
  },
  {
    "name": "STARLINK-35883",
    "noradId": "66892",
    "line1": "1 66892U 25283Q   26178.86500921  .00016693  00000+0  57498-3 0  9996",
    "line2": "2 66892  53.1579 232.3316 0001296  94.9184 265.1964 15.30169888 32711"
  },
  {
    "name": "STARLINK-36033",
    "noradId": "66893",
    "line1": "1 66893U 25283R   26178.84188490  .00013202  00000+0  45715-3 0  9990",
    "line2": "2 66893  53.1565 232.8986 0001105  79.0906 281.0219 15.30195218 32705"
  },
  {
    "name": "STARLINK-35718",
    "noradId": "66894",
    "line1": "1 66894U 25283S   26178.85865497  .00011699  00000+0  40655-3 0  9997",
    "line2": "2 66894  53.1586 232.2906 0001233  89.8114 270.3028 15.30197029 32719"
  },
  {
    "name": "STARLINK-35971",
    "noradId": "66895",
    "line1": "1 66895U 25283T   26178.43413899  .00026812  00000+0  80197-3 0  9995",
    "line2": "2 66895  53.1579 233.2046 0001099  81.4583 278.6544 15.34394211 32660"
  },
  {
    "name": "STARLINK-35791",
    "noradId": "66896",
    "line1": "1 66896U 25283U   26178.84810341  .00012254  00000+0  42522-3 0  9999",
    "line2": "2 66896  53.1567 232.2247 0001170  83.1585 276.9549 15.30195810 32713"
  },
  {
    "name": "STARLINK-36079",
    "noradId": "66897",
    "line1": "1 66897U 25283V   26178.85651920  .00016035  00000+0  48478-3 0  9994",
    "line2": "2 66897  53.1580 231.5714 0001149  90.9536 269.1599 15.34394829 32712"
  },
  {
    "name": "STARLINK-36065",
    "noradId": "66898",
    "line1": "1 66898U 25283W   26178.54757757  .00019805  00000+0  59572-3 0  9991",
    "line2": "2 66898  53.1588 232.4914 0001028  83.3238 276.7882 15.34401044 32687"
  },
  {
    "name": "STARLINK-36064",
    "noradId": "66899",
    "line1": "1 66899U 25283X   26178.87957128  .00012380  00000+0  37695-3 0  9995",
    "line2": "2 66899  53.1584 231.0059 0001078  70.6484 289.4635 15.34397238 32738"
  },
  {
    "name": "STARLINK-36074",
    "noradId": "66900",
    "line1": "1 66900U 25283Y   26178.57493164  .00016119  00000+0  48724-3 0  9999",
    "line2": "2 66900  53.1573 232.6587 0001108  94.1791 265.9338 15.34394708 32680"
  }
]